2025-274G               
1 66656U 25274G   25344.46638161  .00004784  00000+0  47377-3 0  9995
2 66656  97.7384 271.7079 0012463 265.7043  94.2752 14.92250338  2069
SPIRONE                 
1 66657U 25274H   25344.33064006  .00004676  00000+0  46130-3 0  9999
2 66657  97.7383 271.5777 0010893 285.0273  74.9740 14.92428566  2047
2025-274J               
1 66658U 25274J   25344.32904391  .00004495  00000+0  44167-3 0  9996
2 66658  97.7383 271.5800 0011492 288.0927  71.9040 14.92600467  2042
JACK K                  
1 66659U 25274K   25344.32734500  .00004352  00000+0  42579-3 0  9997
2 66659  97.7384 271.5826 0012207 289.5073  70.4827 14.92785796  2041
K-HERO                  
1 66660U 25274L   25344.25895183  .00004792  00000+0  46639-3 0  9995
2 66660  97.7388 271.5190 0012850 290.1663  69.8174 14.92937795  2032
SNUGLITE-III            
1 66661U 25274M   25344.32459921  .00003430  00000+0  33423-3 0  9995
2 66661  97.7387 271.5864 0013516 291.0981  68.8793 14.93077271  2045
2025-274N               
1 66662U 25274N   25344.25703919  .00003726  00000+0  36205-3 0  9996
2 66662  97.7386 271.5211 0013971 291.0451  68.9274 14.93126620  2035
KSLV-II R/B             
1 66663U 25274P   25344.35250625  .00005626  00000+0  47864-3 0  9993
2 66663  97.7410 271.7172 0049932 328.0407  31.7788 14.97256115  2057
SOYUZ-MS 28             
1 66664U 25275A   25344.15480881  .00014816  00000+0  27210-3 0  9996
2 66664  51.6306 155.2782 0003395 228.7831 131.2865 15.49465630  2047
KOMPSAT-7               
1 66820U 25279A   25344.27234443  .00003973  00000+0  33773-3 0  9991
2 66820  97.6405 290.1880 0009445 229.0504 130.9902 14.98382112  1281
ZQ-3 R/B                
1 66877U 25282A   25344.48091485  .01253027  73698-5  26017-3 0  9997
2 66877  56.9526  66.2848 0806176 216.0467 138.3546 14.52973960  1060
1998-067XS              
1 66906U 98067XS  25344.02220671  .00036365  00000+0  63424-3 0  9999
2 66906  51.6303 155.8936 0003912 190.7132 169.3774 15.50350034  1196
1998-067XT              
1 66907U 98067XT  25343.50529068  .00076342  00000+0  12921-2 0  9998
2 66907  51.6307 158.4423 0004803 208.5081 151.5646 15.50864429  1113
1998-067XU              
1 66908U 98067XU  25344.47157028  .00088864  00000+0  14890-2 0  9998
2 66908  51.6304 153.6446 0004812 212.6459 147.4233 15.51078724  1266
SILVERSAT               
1 66909U 98067XV  25343.82707982  .00091886  00000+0  15400-2 0  9993
2 66909  51.6304 156.8402 0004876 210.6196 149.4510 15.51056405  1161
1998-067XW              
1 66910U 98067XW  25344.47007596  .00083191  00000+0  13818-2 0  9992
2 66910  51.6299 153.6350 0005542 197.1967 162.8836 15.51350337  1261
1998-067XX              
1 66911U 98067XX  25343.11695649  .00085582  00000+0  14246-2 0  9997
2 66911  51.6296 160.3494 0005703 191.2268 168.8595 15.51276485  1046
1998-067XY              
1 66912U 98067XY  25342.79680750  .00056065  00000+0  96272-3 0  9992
2 66912  51.6301 161.9610 0005043 202.8278 157.2488 15.50590071   993
2025-284A               
1 66913U 25284A   25344.48897963  .00014980  00000+0  71514-3 0  9990
2 66913  80.4047 132.6177 0011957 211.3387 148.7130 15.18896949   784
2025-284B               
1 66914U 25284B   25344.55439325  .00014926  00000+0  71419-3 0  9997
2 66914  80.4057 132.5353 0008179 253.8580 106.1747 15.18851979   796
HULIANWANG DIGUI 14A    
1 66915U 25285A   25344.49761703 -.00000129  00000+0  14207-4 0  9994
2 66915  50.0034 126.4203 0008111 275.0273  84.9706 14.05466377   597
HULIANWANG DIGUI 14B    
1 66916U 25285B   25344.49747432 -.00000129  00000+0  14270-4 0  9998
2 66916  50.0045 126.4208 0006964 269.7548  90.2559 14.05512764   592
HULIANWANG DIGUI 14C    
1 66917U 25285C   25344.49726433 -.00000156  00000+0 -26357-5 0  9998
2 66917  50.0009 126.4163 0007534 277.4365  82.5684 14.05578834   593
HULIANWANG DIGUI 14D    
1 66918U 25285D   25344.49690887 -.00000144  00000+0  52437-5 0  9996
2 66918  50.0042 126.4163 0006461 272.5409  87.4756 14.05703368   590
HULIANWANG DIGUI 14E    
1 66919U 25285E   25344.49685559 -.00000161  00000+0 -53243-5 0  9993
2 66919  50.0056 126.4189 0007862 283.9415  76.0616 14.05714500   592
HULIANWANG DIGUI 14F    
1 66920U 25285F   25343.85672775  .00000334  00000+0  26469-3 0  9998
2 66920  50.0040 128.9355 0030596 264.6131  95.1286 14.11847534   507
HULIANWANG DIGUI 14G    
1 66921U 25285G   25344.49637275  .00000275  00000+0  25964-3 0  9999
2 66921  50.0113 126.4219 0006742 285.8548  74.1614 14.05885102   591
HULIANWANG DIGUI 14H    
1 66922U 25285H   25344.49604022 -.00000158  00000+0 -33227-5 0  9999
2 66922  50.0078 126.4163 0006935 293.8062  66.2116 14.05998135   594
HULIANWANG DIGUI 14J    
1 66923U 25285J   25344.49586628  .00000195  00000+0  21059-3 0  9998
2 66923  50.0076 126.4161 0005386 288.7008  71.3313 14.06055144   594
CZ-8A R/B               
1 66924U 25285K   25344.35596557  .00000116  00000+0  99817-4 0  9997
2 66924  50.0060 126.3017 0119312  98.3367 263.1096 14.30500389   586
HULIANWANG DIGUI 15A    
1 66953U 25287A   25344.28842681  .00000025  00000+0  96496-5 0  9995
2 66953  86.4956 347.0512 0008244 213.3003 146.7638 13.69073793   194
HULIANWANG DIGUI 15B    
1 66954U 25287B   25344.28833468  .00000025  00000+0  96759-5 0  9991
2 66954  86.4972 347.0530 0008180 212.4744 147.5913 13.69168896   198
HULIANWANG DIGUI 15C    
1 66955U 25287C   25343.41133017  .00000020  00000+0  34705-5 0  9997
2 66955  86.4914 347.3632 0007632 209.8722 150.2003 13.69296672    70
HULIANWANG DIGUI 15D    
1 66956U 25287D   25344.28811448  .00000025  00000+0  96681-5 0  9991
2 66956  86.4971 347.0530 0007063 199.9716 160.1168 13.69398776   191
HULIANWANG DIGUI 15E    
1 66957U 25287E   25344.28801032 -.00000156  00000+0 -19856-3 0  9994
2 66957  86.4941 347.0505 0006893 197.7318 162.3602 13.69509093   198
CZ-6A R/B               
1 66958U 25287F   25344.26404671  .00001198  00000+0  83680-3 0  9992
2 66958  86.5058 347.0420 0107167 109.5710 251.7073 13.94918883   192
YAOGAN-47               
1 66988U 25289A   25343.91731380  .00007778  00000+0  26831-3 0  9993
2 66988  97.5260  49.0270 0009314 269.0929  90.9244 15.30229903   118
CZ-4B R/B               
1 66989U 25289B   25344.60307166  .00052933  29794-5  27359-3 0  9998
2 66989  97.5238  49.7860 0151881  11.0923 349.3621 15.66309569   231
TJS-22                  
1 66990U 25290A   25343.43035469  .00004338  73408-6  40278-3 0  9999
2 66990  28.4275 302.9660 7302159 179.5139 182.3589  2.28111800   197
CZ-3B R/B               
1 66991U 25290B   25343.44196840  .00010315  69824-6  40065-3 0  9995
2 66991  28.4418 302.9445 7238211 178.8623 185.1180  2.37490877    18
